[{"OBJECT_NAME":"ONEWEB-0572","OBJECT_ID":"2023-004M","EPOCH":"2025-08-13T14:21:20.857248","MEAN_MOTION":13.17644686,"ECCENTRICITY":0.0001575,"INCLINATION":87.9034,"RA_OF_ASC_NODE":67.0755,"ARG_OF_PERICENTER":89.3773,"MEAN_ANOMALY":270.7539,"EPHEMERIS_TYPE":0,"CLASSIFICATION_TYPE":"U","NORAD_CAT_ID":55151,"ELEMENT_SET_NO":999,"REV_AT_EPOCH":12697,"BSTAR":5.1514e-5,"MEAN_MOTION_DOT":3.3e-7,"MEAN_MOTION_DDOT":0},{"OBJECT_NAME":"ONEWEB-0573","OBJECT_ID":"2023-004N","EPOCH":"2025-08-13T12:15:49.527360","MEAN_MOTION":13.18688568,"ECCENTRICITY":9.69e-5,"INCLINATION":87.9119,"RA_OF_ASC_NODE":36.6191,"ARG_OF_PERICENTER":104.303,"MEAN_ANOMALY":255.821,"EPHEMERIS_TYPE":0,"CLASSIFICATION_TYPE":"U","NORAD_CAT_ID":55152,"ELEMENT_SET_NO":999,"REV_AT_EPOCH":12914,"BSTAR":0.00024462,"MEAN_MOTION_DOT":1.09e-6,"MEAN_MOTION_DDOT":0},{"OBJECT_NAME":"ONEWEB-0588","OBJECT_ID":"2023-004P","EPOCH":"2025-08-13T12:06:20.032128","MEAN_MOTION":13.18687373,"ECCENTRICITY":0.0001477,"INCLINATION":87.9126,"RA_OF_ASC_NODE":36.6052,"ARG_OF_PERICENTER":104.1034,"MEAN_ANOMALY":256.0262,"EPHEMERIS_TYPE":0,"CLASSIFICATION_TYPE":"U","NORAD_CAT_ID":55153,"ELEMENT_SET_NO":999,"REV_AT_EPOCH":12914,"BSTAR":3.8834e-5,"MEAN_MOTION_DOT":2.8e-7,"MEAN_MOTION_DDOT":0},{"OBJECT_NAME":"ONEWEB-0598","OBJECT_ID":"2023-004Q","EPOCH":"2025-08-13T14:35:29.160096","MEAN_MOTION":13.11414237,"ECCENTRICITY":0.0001355,"INCLINATION":87.8786,"RA_OF_ASC_NODE":82.3819,"ARG_OF_PERICENTER":64.486,"MEAN_ANOMALY":295.6408,"EPHEMERIS_TYPE":0,"CLASSIFICATION_TYPE":"U","NORAD_CAT_ID":55154,"ELEMENT_SET_NO":999,"REV_AT_EPOCH":12558,"BSTAR":0.00049122,"MEAN_MOTION_DOT":1.87e-6,"MEAN_MOTION_DDOT":0},{"OBJECT_NAME":"ONEWEB-0599","OBJECT_ID":"2023-004R","EPOCH":"2025-08-13T13:25:27.803712","MEAN_MOTION":13.17651091,"ECCENTRICITY":0.0001758,"INCLINATION":87.9031,"RA_OF_ASC_NODE":67.0874,"ARG_OF_PERICENTER":80.0118,"MEAN_ANOMALY":280.1212,"EPHEMERIS_TYPE":0,"CLASSIFICATION_TYPE":"U","NORAD_CAT_ID":55155,"ELEMENT_SET_NO":999,"REV_AT_EPOCH":12697,"BSTAR":0.00015067,"MEAN_MOTION_DOT":7.1e-7,"MEAN_MOTION_DDOT":0},{"OBJECT_NAME":"ONEWEB-0614","OBJECT_ID":"2023-004S","EPOCH":"2025-08-13T14:28:10.133184","MEAN_MOTION":13.11414733,"ECCENTRICITY":0.0001769,"INCLINATION":87.879,"RA_OF_ASC_NODE":82.3928,"ARG_OF_PERICENTER":94.5193,"MEAN_ANOMALY":265.6137,"EPHEMERIS_TYPE":0,"CLASSIFICATION_TYPE":"U","NORAD_CAT_ID":55156,"ELEMENT_SET_NO":999,"REV_AT_EPOCH":12552,"BSTAR":0.001242,"MEAN_MOTION_DOT":4.53e-6,"MEAN_MOTION_DDOT":0},{"OBJECT_NAME":"ONEWEB-0616","OBJECT_ID":"2023-004T","EPOCH":"2025-08-13T14:26:13.524288","MEAN_MOTION":13.17648736,"ECCENTRICITY":0.0002543,"INCLINATION":87.9032,"RA_OF_ASC_NODE":67.0699,"ARG_OF_PERICENTER":67.3431,"MEAN_ANOMALY":292.7969,"EPHEMERIS_TYPE":0,"CLASSIFICATION_TYPE":"U","NORAD_CAT_ID":55157,"ELEMENT_SET_NO":999,"REV_AT_EPOCH":12719,"BSTAR":0.00011967,"MEAN_MOTION_DOT":5.9e-7,"MEAN_MOTION_DDOT":0},{"OBJECT_NAME":"ONEWEB-0617","OBJECT_ID":"2023-004U","EPOCH":"2025-08-13T14:11:04.838208","MEAN_MOTION":13.11416327,"ECCENTRICITY":0.000151,"INCLINATION":87.8785,"RA_OF_ASC_NODE":82.3736,"ARG_OF_PERICENTER":93.2308,"MEAN_ANOMALY":266.8993,"EPHEMERIS_TYPE":0,"CLASSIFICATION_TYPE":"U","NORAD_CAT_ID":55158,"ELEMENT_SET_NO":999,"REV_AT_EPOCH":12554,"BSTAR":0.0014287,"MEAN_MOTION_DOT":5.19e-6,"MEAN_MOTION_DDOT":0},{"OBJECT_NAME":"ONEWEB-0618","OBJECT_ID":"2023-004V","EPOCH":"2025-08-13T14:00:48.607488","MEAN_MOTION":14.67963826,"ECCENTRICITY":0.0014052,"INCLINATION":86.9101,"RA_OF_ASC_NODE":301.1834,"ARG_OF_PERICENTER":356.6924,"MEAN_ANOMALY":3.4195,"EPHEMERIS_TYPE":0,"CLASSIFICATION_TYPE":"U","NORAD_CAT_ID":55159,"ELEMENT_SET_NO":999,"REV_AT_EPOCH":13598,"BSTAR":0.00015914,"MEAN_MOTION_DOT":9.35e-6,"MEAN_MOTION_DDOT":0},{"OBJECT_NAME":"ONEWEB-0619","OBJECT_ID":"2023-004W","EPOCH":"2025-08-13T13:23:03.018912","MEAN_MOTION":13.17641967,"ECCENTRICITY":0.0002287,"INCLINATION":87.9027,"RA_OF_ASC_NODE":67.0543,"ARG_OF_PERICENTER":92.5914,"MEAN_ANOMALY":267.5479,"EPHEMERIS_TYPE":0,"CLASSIFICATION_TYPE":"U","NORAD_CAT_ID":55160,"ELEMENT_SET_NO":999,"REV_AT_EPOCH":12708,"BSTAR":-0.0026859,"MEAN_MOTION_DOT":-1.03e-5,"MEAN_MOTION_DDOT":0},{"OBJECT_NAME":"ONEWEB-0620","OBJECT_ID":"2023-004X","EPOCH":"2025-08-13T14:03:45.282528","MEAN_MOTION":13.11417477,"ECCENTRICITY":0.0001498,"INCLINATION":87.8789,"RA_OF_ASC_NODE":82.3961,"ARG_OF_PERICENTER":81.4631,"MEAN_ANOMALY":278.6666,"EPHEMERIS_TYPE":0,"CLASSIFICATION_TYPE":"U","NORAD_CAT_ID":55161,"ELEMENT_SET_NO":999,"REV_AT_EPOCH":12551,"BSTAR":0.0012364,"MEAN_MOTION_DOT":4.51e-6,"MEAN_MOTION_DDOT":0},{"OBJECT_NAME":"ONEWEB-0621","OBJECT_ID":"2023-004Y","EPOCH":"2025-08-13T12:52:56.937504","MEAN_MOTION":13.11414679,"ECCENTRICITY":0.0001888,"INCLINATION":87.8794,"RA_OF_ASC_NODE":82.3629,"ARG_OF_PERICENTER":89.4542,"MEAN_ANOMALY":270.6802,"EPHEMERIS_TYPE":0,"CLASSIFICATION_TYPE":"U","NORAD_CAT_ID":55162,"ELEMENT_SET_NO":999,"REV_AT_EPOCH":12548,"BSTAR":-0.00022344,"MEAN_MOTION_DOT":-6.6e-7,"MEAN_MOTION_DDOT":0},{"OBJECT_NAME":"ONEWEB-0622","OBJECT_ID":"2023-004Z","EPOCH":"2025-08-13T13:00:15.454656","MEAN_MOTION":13.11413888,"ECCENTRICITY":0.0001516,"INCLINATION":87.8784,"RA_OF_ASC_NODE":82.3842,"ARG_OF_PERICENTER":110.518,"MEAN_ANOMALY":249.6111,"EPHEMERIS_TYPE":0,"CLASSIFICATION_TYPE":"U","NORAD_CAT_ID":55163,"ELEMENT_SET_NO":999,"REV_AT_EPOCH":12547,"BSTAR":-0.00089026,"MEAN_MOTION_DOT":-3.03e-6,"MEAN_MOTION_DDOT":0},{"OBJECT_NAME":"ONEWEB-0623","OBJECT_ID":"2023-004AA","EPOCH":"2025-08-13T13:15:43.824384","MEAN_MOTION":13.17651256,"ECCENTRICITY":0.0001999,"INCLINATION":87.9024,"RA_OF_ASC_NODE":67.1117,"ARG_OF_PERICENTER":109.3962,"MEAN_ANOMALY":250.7386,"EPHEMERIS_TYPE":0,"CLASSIFICATION_TYPE":"U","NORAD_CAT_ID":55164,"ELEMENT_SET_NO":999,"REV_AT_EPOCH":12707,"BSTAR":0.00021674,"MEAN_MOTION_DOT":9.7e-7,"MEAN_MOTION_DDOT":0},{"OBJECT_NAME":"ONEWEB-0624","OBJECT_ID":"2023-004AB","EPOCH":"2025-08-13T12:54:51.894432","MEAN_MOTION":13.12942649,"ECCENTRICITY":0.0001787,"INCLINATION":87.8853,"RA_OF_ASC_NODE":51.7994,"ARG_OF_PERICENTER":90.4471,"MEAN_ANOMALY":269.6862,"EPHEMERIS_TYPE":0,"CLASSIFICATION_TYPE":"U","NORAD_CAT_ID":55165,"ELEMENT_SET_NO":999,"REV_AT_EPOCH":12770,"BSTAR":-0.00054338,"MEAN_MOTION_DOT":-1.84e-6,"MEAN_MOTION_DDOT":0},{"OBJECT_NAME":"ONEWEB-0625","OBJECT_ID":"2023-004AC","EPOCH":"2025-08-13T13:01:10.070688","MEAN_MOTION":13.17648803,"ECCENTRICITY":0.0001871,"INCLINATION":87.9023,"RA_OF_ASC_NODE":67.111,"ARG_OF_PERICENTER":82.5992,"MEAN_ANOMALY":277.5352,"EPHEMERIS_TYPE":0,"CLASSIFICATION_TYPE":"U","NORAD_CAT_ID":55166,"ELEMENT_SET_NO":999,"REV_AT_EPOCH":12706,"BSTAR":1.8028e-5,"MEAN_MOTION_DOT":2.0e-7,"MEAN_MOTION_DDOT":0},{"OBJECT_NAME":"ONEWEB-0626","OBJECT_ID":"2023-004AD","EPOCH":"2025-08-13T14:35:56.079744","MEAN_MOTION":13.17649191,"ECCENTRICITY":0.0001322,"INCLINATION":87.9024,"RA_OF_ASC_NODE":67.0964,"ARG_OF_PERICENTER":73.8981,"MEAN_ANOMALY":286.2296,"EPHEMERIS_TYPE":0,"CLASSIFICATION_TYPE":"U","NORAD_CAT_ID":55167,"ELEMENT_SET_NO":999,"REV_AT_EPOCH":12707,"BSTAR":3.3429e-5,"MEAN_MOTION_DOT":2.6e-7,"MEAN_MOTION_DDOT":0}]
