ONEWEB-0572             
1 55151U 23004M   25225.59815807  .00000033  00000+0  51514-4 0  9990
2 55151  87.9034  67.0755 0001575  89.3773 270.7539 13.17644686126979
ONEWEB-0573             
1 55152U 23004N   25225.51098990  .00000109  00000+0  24462-3 0  9994
2 55152  87.9119  36.6191 0000969 104.3030 255.8210 13.18688568129140
ONEWEB-0588             
1 55153U 23004P   25225.50439852  .00000028  00000+0  38834-4 0  9999
2 55153  87.9126  36.6052 0001477 104.1034 256.0262 13.18687373129145
ONEWEB-0598             
1 55154U 23004Q   25225.60797639  .00000187  00000+0  49122-3 0  9998
2 55154  87.8786  82.3819 0001355  64.4860 295.6408 13.11414237125581
ONEWEB-0599             
1 55155U 23004R   25225.55934958  .00000071  00000+0  15067-3 0  9993
2 55155  87.9031  67.0874 0001758  80.0118 280.1212 13.17651091126977
ONEWEB-0614             
1 55156U 23004S   25225.60289506  .00000453  00000+0  12420-2 0  9995
2 55156  87.8790  82.3928 0001769  94.5193 265.6137 13.11414733125522
ONEWEB-0616             
1 55157U 23004T   25225.60154542  .00000059  00000+0  11967-3 0  9995
2 55157  87.9032  67.0699 0002543  67.3431 292.7969 13.17648736127199
ONEWEB-0617             
1 55158U 23004U   25225.59102822  .00000519  00000+0  14287-2 0  9996
2 55158  87.8785  82.3736 0001510  93.2308 266.8993 13.11416327125549
ONEWEB-0618             
1 55159U 23004V   25225.58389592  .00000935  00000+0  15914-3 0  9998
2 55159  86.9101 301.1834 0014052 356.6924   3.4195 14.67963826135989
ONEWEB-0619             
1 55160U 23004W   25225.55767383 -.00001030  00000+0 -26859-2 0  9993
2 55160  87.9027  67.0543 0002287  92.5914 267.5479 13.17641967127089
ONEWEB-0620             
1 55161U 23004X   25225.58594077  .00000451  00000+0  12364-2 0  9995
2 55161  87.8789  82.3961 0001498  81.4631 278.6666 13.11417477125512
ONEWEB-0621             
1 55162U 23004Y   25225.53677011 -.00000066  00000+0 -22344-3 0  9995
2 55162  87.8794  82.3629 0001888  89.4542 270.6802 13.11414679125483
ONEWEB-0622             
1 55163U 23004Z   25225.54184554 -.00000303  00000+0 -89026-3 0  9996
2 55163  87.8784  82.3842 0001516 110.5180 249.6111 13.11413888125471
ONEWEB-0623             
1 55164U 23004AA  25225.55259056  .00000097  00000+0  21674-3 0  9991
2 55164  87.9024  67.1117 0001999 109.3962 250.7386 13.17651256127079
ONEWEB-0624             
1 55165U 23004AB  25225.53810063 -.00000184  00000+0 -54338-3 0  9993
2 55165  87.8853  51.7994 0001787  90.4471 269.6862 13.12942649127703
ONEWEB-0625             
1 55166U 23004AC  25225.54247767  .00000020  00000+0  18028-4 0  9994
2 55166  87.9023  67.1110 0001871  82.5992 277.5352 13.17648803127060
ONEWEB-0626             
1 55167U 23004AD  25225.60828796  .00000026  00000+0  33429-4 0  9997
2 55167  87.9024  67.0964 0001322  73.8981 286.2296 13.17649191127076
